CANX-4                  
1 40055U 14034C   24269.49927658  .00003431  00000+0  47493-3 0  9999
2 40055  98.3879 108.4404 0012356 227.3880 132.6288 14.78685491551406
CANX-5                  
1 40056U 14034D   24269.50378812  .00003468  00000+0  47989-3 0  9994
2 40056  98.3882 108.4536 0012360 227.5716 132.4449 14.78695966551407
UKUBE-1                 
1 40074U 14037F   24269.33016317  .00018006  00000+0  15834-2 0  9994
2 40074  98.3451 205.5957 0006877  93.9660 266.2346 14.96580164553748
BRITE-PL2 (HEWELIUSZ)   
1 40119U 14049B   24269.52639755  .00005369  00000+0  56270-3 0  9993
2 40119  97.8848   8.8148 0015937  37.8704 322.3631 14.89890964547604
AEROCUBE 5C             
1 40965U 15058B   24269.51387755  .00008597  00000+0  75173-3 0  9991
2 40965  64.7699  53.3359 0191999 277.9195  80.0162 14.84167669271912
AEROCUBE 7              
1 40966U 15058C   24269.52606058  .00011219  00000+0  93599-3 0  9990
2 40966  64.7677  46.0643 0186257 277.5406  80.4580 14.86385665272038
FOX-1A (AO-85)          
1 40967U 15058D   24269.48004671  .00008381  00000+0  74883-3 0  9990
2 40967  64.7770  67.6807 0190534 273.6809  84.2530 14.83580643 19868
SINOD-D 1               
1 40968U 15058E   24269.17164530  .00011749  00000+0  99733-3 0  9991
2 40968  64.7778  60.3662 0184423 272.7485  85.2529 14.85953009 22669
SNAP-3 ALICE            
1 40970U 15058G   24269.55449602  .00041317  00000+0  25271-2 0  9991
2 40970  64.7713   9.9414 0150144 270.9677  87.4241 15.01023544 20823
LMRST-SAT               
1 40971U 15058H   24268.71765565  .00007142  00000+0  63922-3 0  9992
2 40971  64.7768  65.5707 0191914 275.3238  82.6001 14.83496139 19753
SNAP-3 EDDIE            
1 40972U 15058J   24268.54029622  .00033990  00000+0  20600-2 0  9996
2 40972  64.7687   6.3457 0150590 272.2800  86.1082 15.01356045 22771
PROPCUBE 3              
1 40973U 15058K   24268.68288114  .00009005  00000+0  76769-3 0  9993
2 40973  64.7713  52.5275 0188187 276.7043  81.2682 14.85522962 20802
BISONSAT                
1 40974U 15058L   24269.47231212  .00024496  00000+0  17235-2 0  9992
2 40974  64.7686  20.5692 0166443 274.2779  83.9332 14.94457355 20736
SNAP-3 JIMI             
1 40975U 15058M   24269.48311155  .00016063  00000+0  12594-2 0  9993
2 40975  64.7702  36.4722 0178996 275.4862  82.5855 14.89299437 19954
PROPCUBE 1 (FLORA)      
1 40976U 15058N   24268.52036406  .00005670  00000+0  53084-3 0  9993
2 40976  64.7750  82.1559 0190292 276.6142  81.3338 14.82290597 22511
SINOD-D 3               
1 40977U 15058P   24268.83802925  .00008593  00000+0  76136-3 0  9995
2 40977  64.7743  73.4620 0184045 275.6948  82.3202 14.84662064 20814
HORYU-4                 
1 41340U 16012D   24268.74144093  .00024452  00000+0  10774-2 0  9993
2 41340  31.0025  44.9865 0007172 271.4978  88.4841 15.20627021473290
RAVAN                   
1 41849U 16067B   24269.07046452  .00020120  00000+0  10046-2 0  9994
2 41849  98.0670  92.8850 0012516  50.4066 309.8269 15.17463518431114
CELTEE 1                
1 41850U 16067C   24268.46700764  .00010266  00000+0  65970-3 0  9998
2 41850  98.1097  83.2578 0000945 167.5288 192.5962 15.08640436430381
OPTICUBE 04             
1 41851U 16067D   24268.73087394  .00006349  00000+0  46266-3 0  9990
2 41851  98.0866  77.9752 0019153  83.7330 276.6076 15.03981027430195
AEROCUBE 8D             
1 41852U 16067E   24269.02800711  .00014797  00000+0  90659-3 0  9991
2 41852  98.1146  83.8871 0005400 128.8196 231.3514 15.10277577430457
AEROCUBE 8C             
1 41853U 16067F   24269.04374400  .00015096  00000+0  92475-3 0  9996
2 41853  98.0963  82.2396 0007765  65.2039 294.9996 15.10265943430447
PROMETHEUS 2-1          
1 41854U 16067G   24269.06669319  .00036003  00000+0  15392-2 0  9998
2 41854  98.1018  91.4543 0011059  76.5522 283.6944 15.22701719430907
PROMETHEUS 2-3          
1 41855U 16067H   24269.46032418  .00040980  00000+0  17531-2 0  9993
2 41855  98.0953  91.2697 0009478  85.5683 274.6634 15.22662645430969
CORVUS BC2              
1 42846U 17042X   24269.43171893  .00008357  00000+0  69169-3 0  9993
2 42846  97.3751  89.0533 0008308  84.2582 275.9589 14.99093362392458
CORVUS BC1              
1 42847U 17042Y   24269.44916428  .00009252  00000+0  76177-3 0  9998
2 42847  97.3750  89.4833 0009732  84.3327 275.9006 14.99257961392478
MIRATA                  
1 43015U 17073C   24269.41897217  .00049351  00000+0  19886-2 0  9998
2 43015  97.5774 153.3546 0148729 276.9941  81.4395 15.15018788371465
MAKERSAT 0              
1 43016U 17073D   24268.55323358  .00025584  00000+0  13484-2 0  9993
2 43016  97.5539 144.9203 0180815 306.0564  52.4026 15.02486949370810
GOMX-4B                 
1 43196U 18015E   24269.46984109  .00555825  13597-3  11698-2 0  9997
2 43196  97.5955  92.6170 0007626 273.4082  86.6323 15.98846173371312
SIRION PATHFINDER-2     
1 43759U 18099B   24268.38722634  .00008437  00000+0  60456-3 0  9997
2 43759  97.5170 321.7975 0009578 314.1354  45.9084 15.04583840317417
CORVUS BC4              
1 43767U 18099K   24268.73716575  .00007827  00000+0  57439-3 0  9991
2 43767  97.5028 319.0323 0010146  18.1497 342.0089 15.03705675317346
MOVE-II                 
1 43780U 18099Y   24269.42965141  .00052651  00000+0  22208-2 0  9998
2 43780  97.5097 331.8726 0004259 355.8071   4.3129 15.23105476318140
SPACEBEE-7              
1 43816U 18099BL  24269.42235744  .00033214  00000+0  17055-2 0  9995
2 43816  97.5373 332.1444 0007548 299.9762  60.0721 15.16404872317574
SPACEBEE-6              
1 43818U 18099BN  24269.18353744  .00107821  00000+0  30300-2 0  9995
2 43818  97.5280 339.4174 0006513 276.1762  83.8739 15.36073528318183
SHIELDS 1               
1 43850U 18104B   24269.34245896  .00034830  00000+0  80643-3 0  9999
2 43850  85.0230 214.9224 0013365  65.6916 294.5731 15.42200230321573
SONATE                  
1 44400U 19038Q   24269.26131171  .00049137  00000+0  11813-2 0  9997
2 44400  97.7170 268.3013 0017550 106.8204 253.4968 15.41004728289454
LUCKY-7                 
1 44406U 19038W   24269.48379684  .00129575  00000+0  16385-2 0  9994
2 44406  97.7014 274.5622 0014101  93.1447 267.1422 15.58971037289909
DUCHIFAT-3              
1 44854U 19089C   24269.38878798  .00036949  00000+0  15899-2 0  9997
2 44854  36.9536 158.5249 0008812 247.3147 112.6670 15.21709922263440
M2 PATHFINDER           
1 45727U 20037E   24268.53344845  .00005813  00000+0  49131-3 0  9992
2 45727  97.7834  84.5610 0011184 146.6986 213.4942 14.98416215230814
NETSAT-4                
1 46504U 20068U   24268.63317979  .00019617  00000+0  95395-3 0  9999
2 46504  97.8158 228.7173 0010754  36.2030 323.9929 15.18405922219242
NETSAT-3                
1 46505U 20068V   24268.85441489  .00019855  00000+0  98107-3 0  9996
2 46505  97.8131 228.3264 0010520  43.7402 316.4662 15.17848517219261
NETSAT-1                
1 46506U 20068W   24268.63346591  .00015132  00000+0  79959-3 0  9999
2 46506  97.8159 227.3023 0009813  53.3230 306.8902 15.15556180219173
NETSAT-2                
1 46507U 20068X   24268.65308553  .00019759  00000+0  96103-3 0  9997
2 46507  97.8137 228.3413 0009123  58.8632 301.3495 15.18411808219193
WILDTRACKCUBE-SIMBA     
1 47941U 21022K   24269.53706533  .00033665  00000+0  12998-2 0  9990
2 47941  97.4447 165.6200 0015524 142.1228 218.1106 15.26084894193749
GRBALPHA                
1 47959U 21022AD  24269.49513256  .00050636  00000+0  15824-2 0  9990
2 47959  97.4443 168.2376 0014597 130.4442 229.8075 15.32894643192734
BEESAT-8                
1 48085U 21022AP  24268.98124162  .00069042  00000+0  15881-2 0  9992
2 48085  97.4663 172.6458 0013592 116.3766 243.8878 15.42308771193208
LEDSAT                  
1 49069U 21073D   24269.17020594  .00041157  00000+0  13872-2 0  9992
2 49069  97.4270 339.9313 0015965 288.2108  71.7395 15.30494130171714
ROBUSTA-1F (MTCUBE 2)   
1 53109U 22080E   24268.07913662 -.00000003  00000+0  00000+0 0  9998
2 53109  70.1258 157.7435 0007896  66.7572 293.3919  6.42583934 51510
SITRO-AIS 5 (KATYS)     
1 57176U 23091L   24269.50907385  .00018856  00000+0  11206-2 0  9990
2 57176  97.6012 320.9417 0018090 136.4919 223.7742 15.11190755 68635
SITRO-AIS 6 (CHIRKIN)   
1 57192U 23091AC  24269.49073317  .00019177  00000+0  11384-2 0  9999
2 57192  97.6016 320.9535 0017964 136.0852 224.1809 15.11229557 68631
SITRO-AIS 8 (ANOKHIN)   
1 57193U 23091AD  24269.49815169  .00020045  00000+0  11729-2 0  9998
2 57193  97.6013 321.0870 0017579 137.0550 223.2056 15.11747090 68643
SITRO-AIS 7 (FARTUSHNIY)
1 57194U 23091AE  24269.49934469  .00018790  00000+0  11178-2 0  9996
2 57194  97.6012 320.9337 0017762 136.8426 223.4199 15.11160952 68637
SITRO-AIS 10 (BURDAEV)  
1 57199U 23091AK  24269.53996176  .00021536  00000+0  11906-2 0  9990
2 57199  97.6028 322.3445 0013255 124.5703 235.6781 15.13828230 68724
SITRO-AIS 9 (SHCHUKIN)  
1 57201U 23091AM  24269.40763712  .00020585  00000+0  11396-2 0  9994
2 57201  97.6024 322.1832 0013202 124.9076 235.3398 15.13789038 68702
SITRO-AIS 12 (SMIRENNIY)
1 57204U 23091AQ  24269.42339895  .00020210  00000+0  11128-2 0  9998
2 57204  97.6032 322.3707 0013024 119.8042 240.4486 15.13989168 68717
SITRO-AIS 11 (SHEFFER)  
1 57208U 23091AU  24269.46855157  .00021429  00000+0  11754-2 0  9998
2 57208  97.6029 322.4512 0012985 119.7696 240.4829 15.14114228 68721
ROBUSTA-1E (ENSO)       
1 58470U 23185J   24269.48967416  .00039138  00000+0  13962-2 0  9997
2 58470  97.4150 335.4359 0010036 281.5347  78.4766 15.28730207 45433
SITRO-AIS 29            
1 59052U 24039B   24269.48147045  .00054838  00000+0  15706-2 0  9993
2 59052  97.4001 231.1877 0012902 202.4941 157.5739 15.35656791 31941
